BLUEBON                 
1 62688U 25009CH  26068.70316231  .00010452  00000+0  37313-3 0  9992
2 62688  97.4017 152.2033 0001193  43.3900 316.7434 15.29047253 63767
STARLINK-34048          
1 63816U 25092N   26068.31506782  .00024390  00000+0  89272-3 0  9994
2 63816  42.9972 174.9792 0000770 251.6672 108.4096 15.27586411 48607
